#aV2020 10 10  0  0  0.00000000     288 DD+AD WGS84 FIT  NGA
## 2126 518400.00000000   300.00000000 59132 0.0000000000000
+   31     1  2  3  4  5  6  7  8  9 10 11 12 13 15 16 17 18
+         19 20 21 22 23 24 25 26 27 28 29 30 31 32  0  0  0
+          0  0  0  0  0  0  0  0  0  0  0  0  0  0  0  0  0
+          0  0  0  0  0  0  0  0  0  0  0  0  0  0  0  0  0
+          0  0  0  0  0  0  0  0  0  0  0  0  0  0  0  0  0
++         2  2  2  2  2  2  2  2  2  2  2  2  2  2  2  2  2
++         2  2  2  2  2  2  2  2  2  2  2  2  2  2  0  0  0
++         0  0  0  0  0  0  0  0  0  0  0  0  0  0  0  0  0
++         0  0  0  0  0  0  0  0  0  0  0  0  0  0  0  0  0
++         0  0  0  0  0  0  0  0  0  0  0  0  0  0  0  0  0
%c cc cc ccc ccc cccc cccc cccc cccc ccccc ccccc ccccc ccccc
%c cc cc ccc ccc cccc cccc cccc cccc ccccc ccccc ccccc ccccc
%f  0.0000000  0.000000000  0.00000000000  0.000000000000000
%f  0.0000000  0.000000000  0.00000000000  0.000000000000000
%i    0    0    0    0      0      0      0      0         0
%i    0    0    0    0      0      0      0      0         0
/*      NGA, ST. LOUIS,MO.                                  
/*   EPHEMERIS COMPUTED FROM 2 DAYS OF DATA                 
/*   EPOCHA v5 SMOOTHER                                     
/*   G1762 IERS2010 SATAF SATAPC                            
*  2020 10 10  0 10  0.00000000
P  1 -22077.077346 -14983.816934  -2020.834597     33.620011                    
V  1   2881.951559   -417.739209 -31861.978058     -0.018567                    
P  2   6561.138738  18123.658251  18933.507257   -527.512698                    
V  2 -20854.806712  -9070.975575  16452.609807     -0.049841                    
P  3 -12753.547815 -13752.354742  18764.549105   -321.951027                    
V  3   1662.463682 -23923.686711 -16234.341663     -0.103553                    
P  4 -18579.948573  -4866.818480  18366.989618   -143.623285                    
V  4  20015.848582 -12018.896021  17028.623773     -0.039363                    
P  5   2561.603055  26190.758160  -2900.763006    -23.022000                    
V  5  -3106.304900   3580.737856  31429.078862     -0.009019                    
P  6  -9127.468430  11737.175003  22063.274155   -332.094044                    
V  6 -23833.243636 -14354.574267  -2192.802143     -0.026007                    
P  7 -23098.390113  -3455.403719 -12764.608499   -390.099749                    
V  7 -12984.706767 -10530.236264  25211.765909     -0.079909                    
P  8  -9624.983786 -11724.663110 -21805.993900    -50.902548                    
V  8  23883.832725 -13975.355111  -2765.738856     -0.013699                    
P  9 -23991.341807   5976.452080   9664.708125   -297.922613                    
V  9   9320.337448  -8576.780317  28249.080171     -0.052897                    
P 10  11766.216995 -16683.020896 -16761.419015   -475.727036                    
V 10   1615.456534  21560.735127 -20467.956217     -0.095297                    
P 11 -17996.141100 -12738.251717 -15026.466640   -141.340467                    
V 11  18721.971026  -1963.322932 -21792.210961      0.105752                    
P 12  10621.448427  16506.960100  17729.107799     56.202831                    
V 12  -3289.452960  22689.552929 -18761.284380     -0.050917                    
P 13   -333.949534  15948.879036 -21346.914907     53.204450                    
V 13 -25121.720961   9360.341165   7540.375049      0.037007                    
P 15  12053.111685  11002.078147 -21331.795318   -198.030810                    
V 15 -21335.609686  15532.120718  -3735.859376      0.025914                    
P 16   -584.570496 -25900.463849  -4837.996165   -220.260633                    
V 16   3218.335735  -5632.261592  31604.115675     -0.051726                    
P 17 -20173.716762  15565.943304   7850.999892    337.624312                    
V 17  -9265.082096   2366.897398 -30197.807971      0.053851                    
P 18  22260.390451   2243.282223 -14364.706988    304.442029                    
V 18  14351.448004  11351.482745  23981.567741      0.061034                    
P 19 -15932.466193  16401.086773  13163.242576    -93.884006                    
V 19 -16519.756690   5073.535861 -25823.718933      0.050381                    
P 20  15280.119628  -4520.429196 -21307.832436    526.456232                    
V 20   3801.244453  26734.920139  -3208.076745     -0.001360                    
P 21 -10918.170474 -17972.720156 -15698.053138     56.073471                    
V 21  19823.503735   7720.541896 -21295.333009      0.040379                    
P 22 -11335.882865 -20338.047093  13114.458844   -745.182255                    
V 22   1525.988024 -16515.754619 -24511.263189      0.045280                    
P 23  14727.409384  -6354.923860 -21197.995238     82.854291                    
V 23    944.305243  26836.386846  -7419.133975      0.067299                    
P 24  21234.604260  15413.002142  -5490.692005    -19.578155                    
V 24  -7350.126297   -249.693444 -29925.080781     -0.004452                    
P 25  14881.740644   3563.925297  21492.884835      2.921821                    
V 25   -644.966499  27817.042890  -3863.509149      0.058881                    
P 26   5584.075710 -24391.946995   8506.501264    292.662537                    
V 26   3514.197444  10861.866078  28964.362664      0.062854                    
P 27   2658.246842 -17089.912430 -20201.542511   -414.820624                    
V 27  22671.198582 -11466.191482  13105.369038     -0.086972                    
P 28 -12159.436053  17813.075556 -15025.350283    669.501169                    
V 28    384.517535 -20107.054616 -23103.262027     -0.043973                    
P 29  23527.933769  -2144.329035  12147.823075   -212.233631                    
V 29 -13255.211550   8071.028703  26964.252073     -0.079271                    
P 30 -17475.738311   5573.908392 -19228.339488   -317.051686                    
V 30 -19900.025557 -14431.029619  13648.745760     -0.069263                    
P 31   7787.614187 -13135.075846  21669.350591    -73.932997                    
V 31  23528.830231  14561.507816    824.189924     -0.024391                    
P 32  19182.185887 -16780.810213   7268.797790    355.888780                    
V 32   9386.390976  -2020.985373 -29942.300461      0.041375                    
EOF
